*******************************************************************************
Ephemeris / WWW_USER Mon Mar 24 06:43:19 2025 Pasadena, USA      / Horizons    
*******************************************************************************
Target body name: (2018 YU2)                      {source: JPL#5}
Center body name: Earth (399)                     {source: DE441}
Center-site name: Gemini South Obs., Cerro Pachon
*******************************************************************************
Start time      : A.D. 2018-Sep-18 22:45:00.0000 UT      
Stop  time      : A.D. 2018-Sep-19 10:28:00.0000 UT      
Step-size       : 1 minutes
*******************************************************************************
Target pole/equ : undefined
Target radii    : undefined                                                    
Center geodetic : 289.2634, -30.2406227, 2.71233  {E-lon(deg),Lat(deg),Alt(km)}
Center cylindric: 289.2634,5517.21435,-3194.81213 {E-lon(deg),Dxy(km),Dz(km)}
Center pole/equ : ITRF93                          {East-longitude positive}
Center radii    : 6378.137, 6378.137, 6356.752 km {Equator_a, b, pole_c}       
Target primary  : Sun
Vis. interferer : MOON (R_eq= 1737.400) km        {source: DE441}
Rel. light bend : Sun                             {source: DE441}
Rel. lght bnd GM: 1.3271E+11 km^3/s^2                                          
Small-body perts: Yes                             {source: SB441-N16}
Atmos refraction: NO (AIRLESS)
RA format       : HMS
Time format     : CAL 
Calendar mode   : Mixed Julian/Gregorian
RTS-only print  : NO       
EOP file        : eop.250321.p250617                                           
EOP coverage    : DATA-BASED 1962-JAN-20 TO 2025-MAR-21. PREDICTS-> 2025-JUN-16
Units conversion: 1 au= 149597870.700 km, c= 299792.458 km/s, 1 day= 86400.0 s 
Table cut-offs 1: Elevation (-90.0deg=NO ),Airmass (>38.000=NO), Daylight (YES)
Table cut-offs 2: Solar elongation (  0.0,180.0=NO ),Local Hour Angle( 0.0=NO )
Table cut-offs 3: RA/DEC angular rate (     0.0=NO )                           
*******************************************************************************
Initial IAU76/J2000 heliocentric ecliptic osculating elements (au, days, deg.):
  EPOCH=  2458477.5 ! 2018-Dec-25.00 (TDB)         Residual RMS= .22887        
   EC= .1533598773405833   QR= .920984914841031    TP= 2458549.1486254167      
   OM= 279.4515303175068   W=  253.4059234937716   IN= 2.850769624588425       
  Equivalent ICRF heliocentric cartesian coordinates (au, au/d):
   X=-6.842297687009524E-02  Y= 9.429126817220428E-01  Z= 4.143187104036840E-01
  VX=-1.695115058702848E-02 VY=-2.997207899955317E-03 VZ=-2.239432528215744E-03
Asteroid physical parameters (km, seconds, rotational period in hours):        
   GM= n.a.                RAD= n.a.               ROTPER= n.a.                
   H= 26.5                 G= .150                 B-V= n.a.                   
                           ALBEDO= n.a.            STYP= n.a.                  
*******************************************************************************
 Date__(UT)__HR:MN     R.A._________(ICRF)_________DEC
******************************************************
$$SOE
 2018-Sep-18 22:45 Cm  04 26 41.242134 +28 54 26.64632
 2018-Sep-18 22:46 Cm  04 26 41.349408 +28 54 27.03966
 2018-Sep-18 22:47 Cm  04 26 41.456675 +28 54 27.43313
 2018-Sep-18 22:48 Cm  04 26 41.563933 +28 54 27.82673
 2018-Sep-18 22:49 Cm  04 26 41.671182 +28 54 28.22046
 2018-Sep-18 22:50 Cm  04 26 41.778423 +28 54 28.61432
 2018-Sep-18 22:51 Cm  04 26 41.885656 +28 54 29.00831
 2018-Sep-18 22:52 Cm  04 26 41.992879 +28 54 29.40243
 2018-Sep-18 22:53 Cm  04 26 42.100094 +28 54 29.79667
 2018-Sep-18 22:54 Cm  04 26 42.207299 +28 54 30.19104
 2018-Sep-18 22:55 Cm  04 26 42.314496 +28 54 30.58554
 2018-Sep-18 22:56 Cm  04 26 42.421684 +28 54 30.98017
 2018-Sep-18 22:57 Cm  04 26 42.528862 +28 54 31.37493
 2018-Sep-18 22:58 Cm  04 26 42.636031 +28 54 31.76981
 2018-Sep-18 22:59 Cm  04 26 42.743190 +28 54 32.16482
 2018-Sep-18 23:00 Cm  04 26 42.850341 +28 54 32.55995
 2018-Sep-18 23:01 Nm  04 26 42.957481 +28 54 32.95521
 2018-Sep-18 23:02 Nm  04 26 43.064612 +28 54 33.35060
 2018-Sep-18 23:03 Nm  04 26 43.171733 +28 54 33.74611
 2018-Sep-18 23:04 Nm  04 26 43.278844 +28 54 34.14175
 2018-Sep-18 23:05 Nm  04 26 43.385946 +28 54 34.53752
 2018-Sep-18 23:06 Nm  04 26 43.493037 +28 54 34.93340
 2018-Sep-18 23:07 Nm  04 26 43.600118 +28 54 35.32942
 2018-Sep-18 23:08 Nm  04 26 43.707189 +28 54 35.72555
 2018-Sep-18 23:09 Nm  04 26 43.814250 +28 54 36.12181
 2018-Sep-18 23:10 Nm  04 26 43.921301 +28 54 36.51820
 2018-Sep-18 23:11 Nm  04 26 44.028341 +28 54 36.91471
 2018-Sep-18 23:12 Nm  04 26 44.135370 +28 54 37.31134
 2018-Sep-18 23:13 Nm  04 26 44.242389 +28 54 37.70809
 2018-Sep-18 23:14 Nm  04 26 44.349397 +28 54 38.10497
 2018-Sep-18 23:15 Nm  04 26 44.456394 +28 54 38.50197
 2018-Sep-18 23:16 Nm  04 26 44.563380 +28 54 38.89909
 2018-Sep-18 23:17 Nm  04 26 44.670356 +28 54 39.29633
 2018-Sep-18 23:18 Nm  04 26 44.777320 +28 54 39.69370
 2018-Sep-18 23:19 Nm  04 26 44.884273 +28 54 40.09118
 2018-Sep-18 23:20 Nm  04 26 44.991215 +28 54 40.48879
 2018-Sep-18 23:21 Nm  04 26 45.098145 +28 54 40.88652
 2018-Sep-18 23:22 Nm  04 26 45.205064 +28 54 41.28436
 2018-Sep-18 23:23 Nm  04 26 45.311972 +28 54 41.68233
 2018-Sep-18 23:24 Nm  04 26 45.418868 +28 54 42.08042
 2018-Sep-18 23:25 Nm  04 26 45.525753 +28 54 42.47862
 2018-Sep-18 23:26 Nm  04 26 45.632625 +28 54 42.87695
 2018-Sep-18 23:27 Nm  04 26 45.739486 +28 54 43.27539
 2018-Sep-18 23:28 Nm  04 26 45.846335 +28 54 43.67395
 2018-Sep-18 23:29 Am  04 26 45.953172 +28 54 44.07263
 2018-Sep-18 23:30 Am  04 26 46.059997 +28 54 44.47142
 2018-Sep-18 23:31 Am  04 26 46.166809 +28 54 44.87034
 2018-Sep-18 23:32 Am  04 26 46.273610 +28 54 45.26937
 2018-Sep-18 23:33 Am  04 26 46.380398 +28 54 45.66851
 2018-Sep-18 23:34 Am  04 26 46.487173 +28 54 46.06778
 2018-Sep-18 23:35 Am  04 26 46.593936 +28 54 46.46716
 2018-Sep-18 23:36 Am  04 26 46.700687 +28 54 46.86665
 2018-Sep-18 23:37 Am  04 26 46.807425 +28 54 47.26626
 2018-Sep-18 23:38 Am  04 26 46.914150 +28 54 47.66598
 2018-Sep-18 23:39 Am  04 26 47.020862 +28 54 48.06582
 2018-Sep-18 23:40 Am  04 26 47.127561 +28 54 48.46578
 2018-Sep-18 23:41 Am  04 26 47.234248 +28 54 48.86584
 2018-Sep-18 23:42 Am  04 26 47.340921 +28 54 49.26602
 2018-Sep-18 23:43 Am  04 26 47.447581 +28 54 49.66632
 2018-Sep-18 23:44 Am  04 26 47.554228 +28 54 50.06672
 2018-Sep-18 23:45 Am  04 26 47.660862 +28 54 50.46724
 2018-Sep-18 23:46 Am  04 26 47.767482 +28 54 50.86787
 2018-Sep-18 23:47 Am  04 26 47.874089 +28 54 51.26861
 2018-Sep-18 23:48 Am  04 26 47.980682 +28 54 51.66946
 2018-Sep-18 23:49 Am  04 26 48.087262 +28 54 52.07043
 2018-Sep-18 23:50 Am  04 26 48.193827 +28 54 52.47150
 2018-Sep-18 23:51 Am  04 26 48.300379 +28 54 52.87268
 2018-Sep-18 23:52 Am  04 26 48.406918 +28 54 53.27398
 2018-Sep-18 23:53 Am  04 26 48.513442 +28 54 53.67538
 2018-Sep-18 23:54 Am  04 26 48.619952 +28 54 54.07689
 2018-Sep-18 23:55 Am  04 26 48.726448 +28 54 54.47851
 2018-Sep-18 23:56 Am  04 26 48.832930 +28 54 54.88024
 2018-Sep-18 23:57  m  04 26 48.939398 +28 54 55.28208
 2018-Sep-18 23:58  m  04 26 49.045851 +28 54 55.68402
 2018-Sep-18 23:59  m  04 26 49.152290 +28 54 56.08607
 2018-Sep-19 00:00  m  04 26 49.258715 +28 54 56.48823
 2018-Sep-19 00:01  m  04 26 49.365125 +28 54 56.89049
 2018-Sep-19 00:02  m  04 26 49.471520 +28 54 57.29286
 2018-Sep-19 00:03  m  04 26 49.577900 +28 54 57.69533
 2018-Sep-19 00:04  m  04 26 49.684266 +28 54 58.09791
 2018-Sep-19 00:05  m  04 26 49.790617 +28 54 58.50060
 2018-Sep-19 00:06  m  04 26 49.896953 +28 54 58.90338
 2018-Sep-19 00:07  m  04 26 50.003274 +28 54 59.30627
 2018-Sep-19 00:08  m  04 26 50.109580 +28 54 59.70927
 2018-Sep-19 00:09  m  04 26 50.215871 +28 55 00.11237
 2018-Sep-19 00:10  m  04 26 50.322146 +28 55 00.51557
 2018-Sep-19 00:11  m  04 26 50.428406 +28 55 00.91887
 2018-Sep-19 00:12  m  04 26 50.534651 +28 55 01.32227
 2018-Sep-19 00:13  m  04 26 50.640881 +28 55 01.72578
 2018-Sep-19 00:14  m  04 26 50.747094 +28 55 02.12938
 2018-Sep-19 00:15  m  04 26 50.853293 +28 55 02.53309
 2018-Sep-19 00:16  m  04 26 50.959475 +28 55 02.93689
 2018-Sep-19 00:17  m  04 26 51.065642 +28 55 03.34080
 2018-Sep-19 00:18  m  04 26 51.171793 +28 55 03.74480
 2018-Sep-19 00:19  m  04 26 51.277928 +28 55 04.14890
 2018-Sep-19 00:20  m  04 26 51.384048 +28 55 04.55311
 2018-Sep-19 00:21  m  04 26 51.490151 +28 55 04.95740
 2018-Sep-19 00:22  m  04 26 51.596238 +28 55 05.36180
 2018-Sep-19 00:23  m  04 26 51.702309 +28 55 05.76629
 2018-Sep-19 00:24  m  04 26 51.808364 +28 55 06.17088
 2018-Sep-19 00:25  m  04 26 51.914402 +28 55 06.57557
 2018-Sep-19 00:26  m  04 26 52.020424 +28 55 06.98035
 2018-Sep-19 00:27  m  04 26 52.126430 +28 55 07.38522
 2018-Sep-19 00:28  m  04 26 52.232419 +28 55 07.79019
 2018-Sep-19 00:29  m  04 26 52.338392 +28 55 08.19525
 2018-Sep-19 00:30  m  04 26 52.444348 +28 55 08.60041
 2018-Sep-19 00:31  m  04 26 52.550287 +28 55 09.00566
 2018-Sep-19 00:32  m  04 26 52.656209 +28 55 09.41100
 2018-Sep-19 00:33  m  04 26 52.762115 +28 55 09.81644
 2018-Sep-19 00:34  m  04 26 52.868004 +28 55 10.22197
 2018-Sep-19 00:35  m  04 26 52.973875 +28 55 10.62759
 2018-Sep-19 00:36  m  04 26 53.079730 +28 55 11.03330
 2018-Sep-19 00:37  m  04 26 53.185568 +28 55 11.43910
 2018-Sep-19 00:38  m  04 26 53.291388 +28 55 11.84499
 2018-Sep-19 00:39  m  04 26 53.397192 +28 55 12.25096
 2018-Sep-19 00:40  m  04 26 53.502977 +28 55 12.65703
 2018-Sep-19 00:41  m  04 26 53.608746 +28 55 13.06319
 2018-Sep-19 00:42  m  04 26 53.714497 +28 55 13.46943
 2018-Sep-19 00:43  m  04 26 53.820231 +28 55 13.87577
 2018-Sep-19 00:44  m  04 26 53.925947 +28 55 14.28218
 2018-Sep-19 00:45  m  04 26 54.031646 +28 55 14.68869
 2018-Sep-19 00:46  m  04 26 54.137327 +28 55 15.09528
 2018-Sep-19 00:47  m  04 26 54.242990 +28 55 15.50196
